{"type": "FeatureCollection", "features": [ {"type": "Feature", "properties": {"norad_id": 41019, "name": "GPS BIIF-11 (PRN 10)", "group": "gnss", "lat": -10.401063064827227, "lon": 31.43922723611375, "alt_km": 20318.69555305997, "timestamp": "2025-12-04T19:33:59.850015+00:00", "meta": {"OBJECT_NAME": "GPS BIIF-11 (PRN 10)", "OBJECT_ID": "2015-062A", "EPOCH": "2025-12-02T20:07:20.287200", "MEAN_MOTION": 2.00566746, "ECCENTRICITY": 0.01105435, "INCLINATION": 56.8251, "RA_OF_ASC_NODE": 38.3854, "ARG_OF_PERICENTER": 229.6764, "MEAN_ANOMALY": 129.4032, "EPHEMERIS_TYPE": 0, "CLASSIFICATION_TYPE": "U", "NORAD_CAT_ID": 41019, "ELEMENT_SET_NO": 999, "REV_AT_EPOCH": 7389, "BSTAR": 0, "MEAN_MOTION_DOT": -6.5e-07, "MEAN_MOTION_DDOT": 0}, "tle": {"line1": "1 41019U 15062A   25336.83842925 -.00000065  00000+0  00000+0 0  9999", "line2": "2 41019  56.8251  38.3854 0110543 229.6764 129.4032  2.00566746 73899"}}, "geometry": {"type": "Point", "coordinates": [31.43922723611375, -10.401063064827227]}}, {"type": "Feature", "properties": {"norad_id": 41028, "name": "GSAT-15 (GAGAN/PRN 139)", "group": "gnss", "lat": 0.018988899593155695, "lon": 100.83777504616127, "alt_km": 35794.875878612685, "timestamp": "2025-12-04T19:33:59.850025+00:00", "meta": {"OBJECT_NAME": "GSAT-15 (GAGAN/PRN 139)", "OBJECT_ID": "2015-065A", "EPOCH": "2025-12-04T03:02:38.529312", "MEAN_MOTION": 1.00271785, "ECCENTRICITY": 0.0003003, "INCLINATION": 0.0341, "RA_OF_ASC_NODE": 93.2741, "ARG_OF_PERICENTER": 140.7067, "MEAN_ANOMALY": 338.3847, "EPHEMERIS_TYPE": 0, "CLASSIFICATION_TYPE": "U", "NORAD_CAT_ID": 41028, "ELEMENT_SET_NO": 999, "REV_AT_EPOCH": 3684, "BSTAR": 0, "MEAN_MOTION_DOT": -2.42e-06, "MEAN_MOTION_DDOT": 0}, "tle": {"line1": "1 41028U 15065A   25338.12683483 -.00000242  00000+0  00000+0 0  9995", "line2": "2 41028   0.0341  93.2741 0003003 140.7067 338.3847  1.00271785 36840"}}, "geometry": {"type": "Point", "coordinates": [100.83777504616127, 0.018988899593155695]}}, {"type": "Feature", "properties": {"norad_id": 41174, "name": "GSAT0209 (GALILEO 12)", "group": "gnss", "lat": -31.669459244514258, "lon": 81.70347422899707, "alt_km": 23220.566504338432, "timestamp": "2025-12-04T19:33:59.850076+00:00", "meta": {"OBJECT_NAME": "GSAT0209 (GALILEO 12)", "OBJECT_ID": "2015-079A", "EPOCH": "2025-12-01T22:43:10.411392", "MEAN_MOTION": 1.70474306, "ECCENTRICITY": 0.0002352, "INCLINATION": 55.7062, "RA_OF_ASC_NODE": 106.6773, "ARG_OF_PERICENTER": 357.4206, "MEAN_ANOMALY": 2.5431, "EPHEMERIS_TYPE": 0, "CLASSIFICATION_TYPE": "U", "NORAD_CAT_ID": 41174, "ELEMENT_SET_NO": 999, "REV_AT_EPOCH": 6141, "BSTAR": 0, "MEAN_MOTION_DOT": 3.5e-07, "MEAN_MOTION_DDOT": 0}, "tle": {"line1": "1 41174U 15079A   25335.94664828  .00000035  00000+0  00000+0 0  9990", "line2": "2 41174  55.7062 106.6773 0002352 357.4206   2.5431  1.70474306 61412"}}, "geometry": {"type": "Point", "coordinates": [81.70347422899707, -31.669459244514258]}}, {"type": "Feature", "properties": {"norad_id": 41175, "name": "GSAT0208 (GALILEO 11)", "group": "gnss", "lat": -4.538248594546311, "lon": -70.32019172837146, "alt_km": 23228.6668866749, "timestamp": "2025-12-04T19:33:59.850089+00:00", "meta": {"OBJECT_NAME": "GSAT0208 (GALILEO 11)", "OBJECT_ID": "2015-079B", "EPOCH": "2025-12-03T08:09:32.138784", "MEAN_MOTION": 1.70474152, "ECCENTRICITY": 0.00019072, "INCLINATION": 55.7055, "RA_OF_ASC_NODE": 106.6362, "ARG_OF_PERICENTER": 9.6551, "MEAN_ANOMALY": 350.3047, "EPHEMERIS_TYPE": 0, "CLASSIFICATION_TYPE": "U", "NORAD_CAT_ID": 41175, "ELEMENT_SET_NO": 999, "REV_AT_EPOCH": 6185, "BSTAR": 0, "MEAN_MOTION_DOT": 2.2e-07, "MEAN_MOTION_DDOT": 0}, "tle": {"line1": "1 41175U 15079B   25337.33995531  .00000022  00000+0  00000+0 0  9990", "line2": "2 41175  55.7055 106.6362 0001907   9.6551 350.3047  1.70474152 61857"}}, "geometry": {"type": "Point", "coordinates": [-70.32019172837146, -4.538248594546311]}}, {"type": "Feature", "properties": {"norad_id": 41241, "name": "IRNSS-1E", "group": "gnss", "lat": 26.843054204844268, "lon": 114.19841724488654, "alt_km": 35841.555335985184, "timestamp": "2025-12-04T19:33:59.850099+00:00", "meta": {"OBJECT_NAME": "IRNSS-1E", "OBJECT_ID": "2016-003A", "EPOCH": "2025-12-03T17:21:12.375360", "MEAN_MOTION": 1.00277647, "ECCENTRICITY": 0.00219003, "INCLINATION": 32.8059, "RA_OF_ASC_NODE": 62.5847, "ARG_OF_PERICENTER": 186.7982, "MEAN_ANOMALY": 195.4387, "EPHEMERIS_TYPE": 0, "CLASSIFICATION_TYPE": "U", "NORAD_CAT_ID": 41241, "ELEMENT_SET_NO": 999, "REV_AT_EPOCH": 3612, "BSTAR": 0, "MEAN_MOTION_DOT": -3.08e-06, "MEAN_MOTION_DDOT": 0}, "tle": {"line1": "1 41241U 16003A   25337.72305990 -.00000308  00000+0  00000+0 0  9997", "line2": "2 41241  32.8059  62.5847 0021900 186.7982 195.4387  1.00277647 36129"}}, "geometry": {"type": "Point", "coordinates": [114.19841724488654, 26.843054204844268]}}, {"type": "Feature", "properties": {"norad_id": 41328, "name": "GPS BIIF-12 (PRN 32)", "group": "gnss", "lat": -51.62358374568965, "lon": 36.61053707686971, "alt_km": 20013.406395753194, "timestamp": "2025-12-04T19:33:59.850109+00:00", "meta": {"OBJECT_NAME": "GPS BIIF-12 (PRN 32)", "OBJECT_ID": "2016-007A", "EPOCH": "2025-12-03T22:01:44.177952", "MEAN_MOTION": 2.00561076, "ECCENTRICITY": 0.00917388, "INCLINATION": 55.4011, "RA_OF_ASC_NODE": 97.2072, "ARG_OF_PERICENTER": 243.359, "MEAN_ANOMALY": 115.6713, "EPHEMERIS_TYPE": 0, "CLASSIFICATION_TYPE": "U", "NORAD_CAT_ID": 41328, "ELEMENT_SET_NO": 999, "REV_AT_EPOCH": 7192, "BSTAR": 0, "MEAN_MOTION_DOT": -7e-08, "MEAN_MOTION_DDOT": 0}, "tle": {"line1": "1 41328U 16007A   25337.91787243 -.00000007  00000+0  00000+0 0  9999", "line2": "2 41328  55.4011  97.2072 0091738 243.3590 115.6713  2.00561076 71927"}}, "geometry": {"type": "Point", "coordinates": [36.61053707686971, -51.62358374568965]}}, {"type": "Feature", "properties": {"norad_id": 41330, "name": "COSMOS 2514 (751)", "group": "gnss", "lat": -26.542097531998696, "lon": 153.0568624593424, "alt_km": 19102.39144751348, "timestamp": "2025-12-04T19:33:59.850119+00:00", "meta": {"OBJECT_NAME": "COSMOS 2514 (751)", "OBJECT_ID": "2016-008A", "EPOCH": "2025-12-03T14:29:09.873600", "MEAN_MOTION": 2.1310246, "ECCENTRICITY": 0.00124497, "INCLINATION": 65.139, "RA_OF_ASC_NODE": 319.717, "ARG_OF_PERICENTER": 219.8924, "MEAN_ANOMALY": 140.017, "EPHEMERIS_TYPE": 0, "CLASSIFICATION_TYPE": "U", "NORAD_CAT_ID": 41330, "ELEMENT_SET_NO": 999, "REV_AT_EPOCH": 7645, "BSTAR": 0, "MEAN_MOTION_DOT": -4.2e-07, "MEAN_MOTION_DDOT": 0}, "tle": {"line1": "1 41330U 16008A   25337.60358650 -.00000042  00000+0  00000+0 0  9994", "line2": "2 41330  65.1390 319.7170 0012449 219.8924 140.0170  2.13102460 76454"}}, "geometry": {"type": "Point", "coordinates": [153.0568624593424, -26.542097531998696]}}, {"type": "Feature", "properties": {"norad_id": 41384, "name": "IRNSS-1F", "group": "gnss", "lat": -4.24452842459864, "lon": 40.0641601899597, "alt_km": 35833.516417822975, "timestamp": "2025-12-04T19:33:59.850130+00:00", "meta": {"OBJECT_NAME": "IRNSS-1F", "OBJECT_ID": "2016-015A", "EPOCH": "2025-12-04T01:07:21.703008", "MEAN_MOTION": 1.00267997, "ECCENTRICITY": 0.00224181, "INCLINATION": 4.8586, "RA_OF_ASC_NODE": 101.5153, "ARG_OF_PERICENTER": 179.6158, "MEAN_ANOMALY": 201.2266, "EPHEMERIS_TYPE": 0, "CLASSIFICATION_TYPE": "U", "NORAD_CAT_ID": 41384, "ELEMENT_SET_NO": 999, "REV_AT_EPOCH": 3571, "BSTAR": 0, "MEAN_MOTION_DOT": 1.73e-06, "MEAN_MOTION_DDOT": 0}, "tle": {"line1": "1 41384U 16015A   25338.04677897  .00000173  00000+0  00000+0 0  9991", "line2": "2 41384   4.8586 101.5153 0022418 179.6158 201.2266  1.00267997 35719"}}, "geometry": {"type": "Point", "coordinates": [40.0641601899597, -4.24452842459864]}}, {"type": "Feature", "properties": {"norad_id": 41434, "name": "BEIDOU-2 IGSO-6 (C13)", "group": "gnss", "lat": 47.92796102003904, "lon": 79.81473885215851, "alt_km": 36033.52265311229, "timestamp": "2025-12-04T19:33:59.850140+00:00", "meta": {"OBJECT_NAME": "BEIDOU-2 IGSO-6 (C13)", "OBJECT_ID": "2016-021A", "EPOCH": "2025-12-01T15:57:35.287200", "MEAN_MOTION": 1.00256562, "ECCENTRICITY": 0.00591323, "INCLINATION": 59.9483, "RA_OF_ASC_NODE": 40.0119, "ARG_OF_PERICENTER": 231.2834, "MEAN_ANOMALY": 130.8807, "EPHEMERIS_TYPE": 0, "CLASSIFICATION_TYPE": "U", "NORAD_CAT_ID": 41434, "ELEMENT_SET_NO": 999, "REV_AT_EPOCH": 3550, "BSTAR": 0, "MEAN_MOTION_DOT": -1.55e-06, "MEAN_MOTION_DDOT": 0}, "tle": {"line1": "1 41434U 16021A   25335.66499175 -.00000155  00000+0  00000+0 0  9991", "line2": "2 41434  59.9483  40.0119 0059132 231.2834 130.8807  1.00256562 35501"}}, "geometry": {"type": "Point", "coordinates": [79.81473885215851, 47.92796102003904]}}, {"type": "Feature", "properties": {"norad_id": 41469, "name": "IRNSS-1G", "group": "gnss", "lat": 2.688453351723709, "lon": 136.87834037827713, "alt_km": 35770.490632430374, "timestamp": "2025-12-04T19:33:59.850153+00:00", "meta": {"OBJECT_NAME": "IRNSS-1G", "OBJECT_ID": "2016-027A", "EPOCH": "2025-12-04T07:29:36.995136", "MEAN_MOTION": 1.00289319, "ECCENTRICITY": 0.00028917, "INCLINATION": 4.7123, "RA_OF_ASC_NODE": 102.3108, "ARG_OF_PERICENTER": 3.3434, "MEAN_ANOMALY": 209.6873, "EPHEMERIS_TYPE": 0, "CLASSIFICATION_TYPE": "U", "NORAD_CAT_ID": 41469, "ELEMENT_SET_NO": 999, "REV_AT_EPOCH": 3522, "BSTAR": 0, "MEAN_MOTION_DOT": -3.19e-06, "MEAN_MOTION_DDOT": 0}, "tle": {"line1": "1 41469U 16027A   25338.31223374 -.00000319  00000+0  00000+0 0  9998", "line2": "2 41469   4.7123 102.3108 0002891   3.3434 209.6873  1.00289319 35225"}}, "geometry": {"type": "Point", "coordinates": [136.87834037827713, 2.688453351723709]}}]}